[Satellite]
VERSION=1.1
NAME=WORLDVIEW-1 (WV-1)
NICKNAME=WORLDVIEW-1 (WV-1)
TLE1=1 32060U 07041A   15055.46238557  .00006953  00000-0  28666-3 0  9993
TLE2=2 32060  97.8626 144.8755 0003991  12.6536 120.2480 15.24415582413710
